[{"address_id":1,"title":"Ainyx","address_image_url":-1,"city":"Rio Verde de Mato Grosso","district":"Kedzie","neighborhood":"Fremont","street":"Meadow Vale","building_name":"Williamson, Gorczany and Beer","building_number":80,"floor_number":24,"door_number":23,"postal_code":34898,"user_id":5},
{"address_id":2,"title":"Oyondu","address_image_url":-1,"city":"Npongge","district":"Debra","neighborhood":"Drewry","street":"Northwestern","building_name":"Schamberger-Mante","building_number":50,"floor_number":25,"door_number":88,"postal_code":34183,"user_id":2},
{"address_id":3,"title":"Yadel","address_image_url":-1,"city":"Klinan","district":"Pankratz","neighborhood":"Moulton","street":"Nancy","building_name":"Farrell and Sons","building_number":98,"floor_number":20,"door_number":10,"postal_code":34148,"user_id":6},
{"address_id":4,"title":"Quinu","address_image_url":-1,"city":"Montes Claros","district":"Buhler","neighborhood":"Darwin","street":"Village","building_name":"Mueller, Mayer and McGlynn","building_number":24,"floor_number":26,"door_number":74,"postal_code":34751,"user_id":4},
{"address_id":5,"title":"Jaloo","address_image_url":-1,"city":"Ivanovskoye","district":"5th","neighborhood":"Ilene","street":"Lawn","building_name":"Runolfsdottir and Sons","building_number":57,"floor_number":16,"door_number":52,"postal_code":34348,"user_id":10},
{"address_id":6,"title":"Fanoodle","address_image_url":-1,"city":"Zürich","district":"Meadow Valley","neighborhood":"Summerview","street":"Oriole","building_name":"Batz, Barrows and Wiza","building_number":88,"floor_number":9,"door_number":48,"postal_code":34116,"user_id":9},
{"address_id":7,"title":"Wikizz","address_image_url":-1,"city":"Lima Pampa","district":"Chive","neighborhood":"Lotheville","street":"Scott","building_name":"Littel-Kuphal","building_number":70,"floor_number":8,"door_number":114,"postal_code":34978,"user_id":3},
{"address_id":8,"title":"Aimbo","address_image_url":-1,"city":"El Paso","district":"International","neighborhood":"Oxford","street":"New Castle","building_name":"Gutmann-Cartwright","building_number":12,"floor_number":28,"door_number":66,"postal_code":34433,"user_id":6},
{"address_id":9,"title":"Twitterworks","address_image_url":-1,"city":"Kissidougou","district":"Fair Oaks","neighborhood":"Lerdahl","street":"Riverside","building_name":"Bradtke-Jones","building_number":56,"floor_number":19,"door_number":116,"postal_code":34245,"user_id":2},
{"address_id":10,"title":"Photobug","address_image_url":-1,"city":"Kushikino","district":"Ridgeview","neighborhood":"Buell","street":"West","building_name":"Lockman, Rau and Ledner","building_number":54,"floor_number":7,"door_number":37,"postal_code":34698,"user_id":9},
{"address_id":11,"title":"Jabbersphere","address_image_url":-1,"city":"Sarnia","district":"Doe Crossing","neighborhood":"Menomonie","street":"Thompson","building_name":"Christiansen-Rodriguez","building_number":31,"floor_number":19,"door_number":14,"postal_code":34816,"user_id":1},
{"address_id":12,"title":"Twitterbridge","address_image_url":-1,"city":"Ostravice","district":"Glacier Hill","neighborhood":"Judy","street":"Mifflin","building_name":"Ratke and Sons","building_number":82,"floor_number":28,"door_number":34,"postal_code":34214,"user_id":3},
{"address_id":13,"title":"Twitternation","address_image_url":-1,"city":"Kobilje","district":"Havey","neighborhood":"Everett","street":"Meadow Vale","building_name":"Kuphal, Robel and Leannon","building_number":96,"floor_number":25,"door_number":17,"postal_code":34871,"user_id":6},
{"address_id":14,"title":"Youspan","address_image_url":-1,"city":"Tiouli","district":"Kim","neighborhood":"Dwight","street":"Esker","building_name":"Ortiz Group","building_number":27,"floor_number":23,"door_number":8,"postal_code":34275,"user_id":10},
{"address_id":15,"title":"Eimbee","address_image_url":-1,"city":"Solna","district":"School","neighborhood":"Oneill","street":"International","building_name":"Dickens Inc","building_number":3,"floor_number":13,"door_number":6,"postal_code":34983,"user_id":3},
{"address_id":16,"title":"Abatz","address_image_url":-1,"city":"Taza","district":"Fairfield","neighborhood":"Erie","street":"Pawling","building_name":"O'Keefe LLC","building_number":6,"floor_number":13,"door_number":66,"postal_code":34292,"user_id":7},
{"address_id":17,"title":"Babbleblab","address_image_url":-1,"city":"Watulumbung","district":"North","neighborhood":"Rockefeller","street":"Eastwood","building_name":"Welch LLC","building_number":45,"floor_number":8,"door_number":102,"postal_code":34363,"user_id":9},
{"address_id":18,"title":"Skipfire","address_image_url":-1,"city":"Áno Liósia","district":"Green Ridge","neighborhood":"Cherokee","street":"Vidon","building_name":"Nienow Group","building_number":66,"floor_number":25,"door_number":3,"postal_code":34332,"user_id":5},
{"address_id":19,"title":"Browsetype","address_image_url":-1,"city":"Makarov","district":"4th","neighborhood":"Schiller","street":"Old Shore","building_name":"Buckridge, Hintz and Rowe","building_number":10,"floor_number":22,"door_number":59,"postal_code":34647,"user_id":4},
{"address_id":20,"title":"Jabbersphere","address_image_url":-1,"city":"Hanau","district":"Drewry","neighborhood":"Londonderry","street":"Comanche","building_name":"Hand-Cummings","building_number":90,"floor_number":19,"door_number":57,"postal_code":34253,"user_id":10},
{"address_id":21,"title":"Brightbean","address_image_url":-1,"city":"Longsheng","district":"Dryden","neighborhood":"Linden","street":"Bellgrove","building_name":"Herzog Inc","building_number":5,"floor_number":28,"door_number":6,"postal_code":34909,"user_id":8},
{"address_id":22,"title":"Wordify","address_image_url":-1,"city":"Yanliang","district":"Crownhardt","neighborhood":"Kim","street":"Banding","building_name":"Robel and Sons","building_number":83,"floor_number":9,"door_number":106,"postal_code":34206,"user_id":1},
{"address_id":23,"title":"Skivee","address_image_url":-1,"city":"Kastsyukovichy","district":"Vidon","neighborhood":"Shelley","street":"Rockefeller","building_name":"Ruecker-Adams","building_number":27,"floor_number":21,"door_number":93,"postal_code":34083,"user_id":1},
{"address_id":24,"title":"Realfire","address_image_url":-1,"city":"Novalja","district":"Onsgard","neighborhood":"Hooker","street":"Menomonie","building_name":"Sauer-Cremin","building_number":94,"floor_number":6,"door_number":40,"postal_code":34795,"user_id":4},
{"address_id":25,"title":"Dazzlesphere","address_image_url":-1,"city":"Xiaodukou","district":"Bartelt","neighborhood":"Melrose","street":"Mccormick","building_name":"Harvey-Pagac","building_number":43,"floor_number":22,"door_number":88,"postal_code":34933,"user_id":10},
{"address_id":26,"title":"Digitube","address_image_url":-1,"city":"Dinititi","district":"Golden Leaf","neighborhood":"Center","street":"Lake View","building_name":"Daugherty-Abernathy","building_number":24,"floor_number":6,"door_number":52,"postal_code":34502,"user_id":9},
{"address_id":27,"title":"Divape","address_image_url":-1,"city":"Hanting","district":"Truax","neighborhood":"Portage","street":"Kropf","building_name":"Marks-Bergstrom","building_number":48,"floor_number":5,"door_number":74,"postal_code":34721,"user_id":10},
{"address_id":28,"title":"Fiveclub","address_image_url":-1,"city":"Fauske","district":"Anthes","neighborhood":"Glendale","street":"Pepper Wood","building_name":"Shanahan, Ullrich and Deckow","building_number":38,"floor_number":16,"door_number":44,"postal_code":34422,"user_id":9},
{"address_id":29,"title":"Rhybox","address_image_url":-1,"city":"Saint-Priest-en-Jarez","district":"Lindbergh","neighborhood":"Westerfield","street":"Myrtle","building_name":"Nolan Group","building_number":80,"floor_number":11,"door_number":119,"postal_code":34955,"user_id":8},
{"address_id":30,"title":"Browsebug","address_image_url":-1,"city":"Kučevo","district":"Mayfield","neighborhood":"Coolidge","street":"Orin","building_name":"Conn, Borer and Beatty","building_number":45,"floor_number":7,"door_number":53,"postal_code":34133,"user_id":9},
{"address_id":31,"title":"Nlounge","address_image_url":-1,"city":"Paiçandu","district":"Morning","neighborhood":"Butterfield","street":"Helena","building_name":"Jerde, Jakubowski and Thompson","building_number":80,"floor_number":29,"door_number":12,"postal_code":34853,"user_id":6},
{"address_id":32,"title":"Vipe","address_image_url":-1,"city":"Tarogong","district":"Fairview","neighborhood":"Maywood","street":"Lakewood","building_name":"Bode, Conroy and Koelpin","building_number":67,"floor_number":27,"door_number":90,"postal_code":34502,"user_id":9},
{"address_id":33,"title":"Meedoo","address_image_url":-1,"city":"Mīāndoāb","district":"Anderson","neighborhood":"Everett","street":"Mallory","building_name":"Morar, Abshire and Swift","building_number":18,"floor_number":1,"door_number":104,"postal_code":34971,"user_id":5},
{"address_id":34,"title":"Lazzy","address_image_url":-1,"city":"Gedera","district":"Farwell","neighborhood":"Meadow Valley","street":"Menomonie","building_name":"Kihn Group","building_number":60,"floor_number":17,"door_number":44,"postal_code":34285,"user_id":9},
{"address_id":35,"title":"Talane","address_image_url":-1,"city":"Nancheng","district":"Carioca","neighborhood":"Darwin","street":"Dorton","building_name":"Braun-Reichert","building_number":62,"floor_number":14,"door_number":108,"postal_code":34744,"user_id":3},
{"address_id":36,"title":"Kamba","address_image_url":-1,"city":"Harstad","district":"Mayfield","neighborhood":"Merry","street":"Linden","building_name":"Mayer-Wilkinson","building_number":97,"floor_number":2,"door_number":51,"postal_code":34283,"user_id":7},
{"address_id":37,"title":"Teklist","address_image_url":-1,"city":"Padangtikar","district":"Maple","neighborhood":"Donald","street":"Stoughton","building_name":"Turcotte, Feil and Stanton","building_number":90,"floor_number":22,"door_number":43,"postal_code":34318,"user_id":3},
{"address_id":38,"title":"Nlounge","address_image_url":-1,"city":"Polonne","district":"Eggendart","neighborhood":"Messerschmidt","street":"Lerdahl","building_name":"Von, Moen and McKenzie","building_number":15,"floor_number":26,"door_number":119,"postal_code":34580,"user_id":6},
{"address_id":39,"title":"Skyba","address_image_url":-1,"city":"Bourges","district":"Quincy","neighborhood":"Almo","street":"Kensington","building_name":"Beatty-Anderson","building_number":14,"floor_number":22,"door_number":24,"postal_code":34719,"user_id":9},
{"address_id":40,"title":"Linklinks","address_image_url":-1,"city":"Shahrīār","district":"Hazelcrest","neighborhood":"Fallview","street":"Roth","building_name":"Hettinger and Sons","building_number":34,"floor_number":23,"door_number":68,"postal_code":34052,"user_id":4},
{"address_id":41,"title":"Photolist","address_image_url":-1,"city":"Dushi","district":"Kinsman","neighborhood":"Arapahoe","street":"Oakridge","building_name":"Schuppe-Friesen","building_number":33,"floor_number":17,"door_number":59,"postal_code":34338,"user_id":10},
{"address_id":42,"title":"Trudeo","address_image_url":-1,"city":"Tingqian","district":"Raven","neighborhood":"Oak Valley","street":"Corry","building_name":"Rosenbaum LLC","building_number":62,"floor_number":30,"door_number":49,"postal_code":34575,"user_id":5},
{"address_id":43,"title":"Meevee","address_image_url":-1,"city":"Kalvola","district":"Truax","neighborhood":"Vermont","street":"Talisman","building_name":"McClure Group","building_number":73,"floor_number":17,"door_number":31,"postal_code":34024,"user_id":9},
{"address_id":44,"title":"Pixope","address_image_url":-1,"city":"Dongwan","district":"Thompson","neighborhood":"Knutson","street":"Mcguire","building_name":"Schowalter, Runte and Klein","building_number":22,"floor_number":21,"door_number":31,"postal_code":34592,"user_id":2},
{"address_id":45,"title":"Jetwire","address_image_url":-1,"city":"Mobile","district":"Brown","neighborhood":"Claremont","street":"Sachtjen","building_name":"Yundt LLC","building_number":70,"floor_number":1,"door_number":56,"postal_code":34389,"user_id":7},
{"address_id":46,"title":"Kimia","address_image_url":-1,"city":"Peremyshl’","district":"Coleman","neighborhood":"Comanche","street":"Amoth","building_name":"D'Amore Group","building_number":3,"floor_number":9,"door_number":25,"postal_code":34607,"user_id":2},
{"address_id":47,"title":"Tagtune","address_image_url":-1,"city":"Corumbá","district":"Cordelia","neighborhood":"Lakeland","street":"Morrow","building_name":"Rodriguez-Ortiz","building_number":21,"floor_number":10,"door_number":73,"postal_code":34865,"user_id":10},
{"address_id":48,"title":"Buzzshare","address_image_url":-1,"city":"Ryglice","district":"Macpherson","neighborhood":"Manitowish","street":"Randy","building_name":"Rath Inc","building_number":10,"floor_number":26,"door_number":17,"postal_code":34362,"user_id":7},
{"address_id":49,"title":"Eare","address_image_url":-1,"city":"Muruni","district":"Forest Dale","neighborhood":"Novick","street":"Fallview","building_name":"Waelchi-Gutkowski","building_number":99,"floor_number":30,"door_number":28,"postal_code":34615,"user_id":7},
{"address_id":50,"title":"Wikivu","address_image_url":-1,"city":"Saint-Étienne","district":"Killdeer","neighborhood":"Crest Line","street":"Dixon","building_name":"Cormier Group","building_number":48,"floor_number":9,"door_number":40,"postal_code":34677,"user_id":1},
{"address_id":51,"title":"Vinder","address_image_url":-1,"city":"San Miguel","district":"Derek","neighborhood":"Sugar","street":"Fremont","building_name":"Runte-Stoltenberg","building_number":67,"floor_number":8,"door_number":119,"postal_code":34203,"user_id":4},
{"address_id":52,"title":"Oyoba","address_image_url":-1,"city":"Zürich","district":"Gulseth","neighborhood":"Delladonna","street":"Porter","building_name":"Kihn-Beatty","building_number":1,"floor_number":26,"door_number":61,"postal_code":34699,"user_id":8},
{"address_id":53,"title":"Zoombeat","address_image_url":-1,"city":"Arklow","district":"Moulton","neighborhood":"Del Sol","street":"Wayridge","building_name":"Schultz and Sons","building_number":88,"floor_number":24,"door_number":13,"postal_code":34976,"user_id":7},
{"address_id":54,"title":"Aimbo","address_image_url":-1,"city":"Kiaranonggeng","district":"Emmet","neighborhood":"Amoth","street":"Mariners Cove","building_name":"Ledner-Mueller","building_number":26,"floor_number":21,"door_number":4,"postal_code":34002,"user_id":7},
{"address_id":55,"title":"Trilia","address_image_url":-1,"city":"Fuxing","district":"Gina","neighborhood":"Beilfuss","street":"Russell","building_name":"Flatley Inc","building_number":5,"floor_number":23,"door_number":39,"postal_code":34468,"user_id":5},
{"address_id":56,"title":"Ainyx","address_image_url":-1,"city":"Mbocayaty","district":"Merry","neighborhood":"Huxley","street":"Toban","building_name":"Weber-Torp","building_number":63,"floor_number":21,"door_number":38,"postal_code":34462,"user_id":5},
{"address_id":57,"title":"Digitube","address_image_url":-1,"city":"Uberaba","district":"Surrey","neighborhood":"Thompson","street":"Warrior","building_name":"Gorczany, Stiedemann and Gerhold","building_number":96,"floor_number":20,"door_number":106,"postal_code":34881,"user_id":5},
{"address_id":58,"title":"Divape","address_image_url":-1,"city":"‘Ibrī","district":"Saint Paul","neighborhood":"Graedel","street":"Nova","building_name":"Kreiger-Schultz","building_number":36,"floor_number":12,"door_number":63,"postal_code":34523,"user_id":7},
{"address_id":59,"title":"Thoughtsphere","address_image_url":-1,"city":"Khorugh","district":"Union","neighborhood":"Mockingbird","street":"Ludington","building_name":"Reinger-Schowalter","building_number":14,"floor_number":1,"door_number":34,"postal_code":34418,"user_id":5},
{"address_id":60,"title":"Dynabox","address_image_url":-1,"city":"Tuusula","district":"Dottie","neighborhood":"Talmadge","street":"Colorado","building_name":"Schmeler-Friesen","building_number":17,"floor_number":20,"door_number":47,"postal_code":34278,"user_id":6},
{"address_id":61,"title":"Abatz","address_image_url":-1,"city":"Lubango","district":"Northwestern","neighborhood":"Shopko","street":"Evergreen","building_name":"Hegmann-Harvey","building_number":9,"floor_number":20,"door_number":72,"postal_code":34496,"user_id":1},
{"address_id":62,"title":"Zooveo","address_image_url":-1,"city":"Karlshamn","district":"Hoepker","neighborhood":"Oak","street":"Mandrake","building_name":"D'Amore-O'Reilly","building_number":27,"floor_number":29,"door_number":48,"postal_code":34704,"user_id":6},
{"address_id":63,"title":"Vimbo","address_image_url":-1,"city":"Stratford","district":"Lakewood","neighborhood":"Luster","street":"Starling","building_name":"Schumm-Brown","building_number":33,"floor_number":7,"door_number":111,"postal_code":34342,"user_id":3},
{"address_id":64,"title":"Meeveo","address_image_url":-1,"city":"Vyshneye Dolgoye","district":"Forest Run","neighborhood":"Dottie","street":"Scofield","building_name":"Wolf, Schuppe and Barton","building_number":90,"floor_number":15,"door_number":58,"postal_code":34758,"user_id":3},
{"address_id":65,"title":"Lajo","address_image_url":-1,"city":"Shaxi","district":"Straubel","neighborhood":"Killdeer","street":"Waubesa","building_name":"Vandervort-Windler","building_number":15,"floor_number":16,"door_number":4,"postal_code":34620,"user_id":5},
{"address_id":66,"title":"Voonyx","address_image_url":-1,"city":"Salt Lake City","district":"Pepper Wood","neighborhood":"Jenifer","street":"South","building_name":"Fisher Inc","building_number":38,"floor_number":11,"door_number":4,"postal_code":34683,"user_id":7},
{"address_id":67,"title":"Thoughtworks","address_image_url":-1,"city":"Almeirim","district":"Derek","neighborhood":"Graceland","street":"Bashford","building_name":"Legros, Wolf and Will","building_number":82,"floor_number":25,"door_number":1,"postal_code":34522,"user_id":10},
{"address_id":68,"title":"Topdrive","address_image_url":-1,"city":"Boston","district":"Briar Crest","neighborhood":"Clarendon","street":"Springs","building_name":"Wunsch-Oberbrunner","building_number":68,"floor_number":13,"door_number":4,"postal_code":34738,"user_id":6},
{"address_id":69,"title":"Jayo","address_image_url":-1,"city":"Sukamaju","district":"Shopko","neighborhood":"Paget","street":"Kennedy","building_name":"Kshlerin and Sons","building_number":93,"floor_number":6,"door_number":54,"postal_code":34112,"user_id":8},
{"address_id":70,"title":"Gabvine","address_image_url":-1,"city":"Suruhwadang","district":"Jana","neighborhood":"Delladonna","street":"Forster","building_name":"Dicki Inc","building_number":75,"floor_number":25,"door_number":70,"postal_code":34470,"user_id":9}]